CTC1_L_00052016-03
1 35345U 23286ZY  26070.40831019  .00000000  00000+0  00000-0 0  9991
2 35345  80.0000 180.0000 0000000   0.0000   0.0000 15.08756051    18
CTC1_L_00052016-04
1 35346U 26281UJ  26070.40831019  .00000000  00000+0  00000-0 0  9990
2 35346  80.0000 180.0000 0000000   0.0000  90.0000 15.08756051    18
CTC1_L_00052017-01
1 35347U 26887YS  26070.40831019  .00000000  00000+0  00000-0 0  9993
2 35347  80.0000 192.0000 0000000   0.0000 192.0000 15.08756051    15
CTC1_L_00052017-02
1 35348U 26055OV  26070.40831019  .00000000  00000+0  00000-0 0  9991
2 35348  80.0000 192.0000 0000000   0.0000 282.0000 15.08756051    16
CTC1_L_00052017-03
1 35349U 25027B   26070.40831019  .00000000  00000+0  00000-0 0  9990
2 35349  80.0000 192.0000 0000000   0.0000  12.0000 15.08756051    18
CTC1_L_00052017-04
1 35350U 24915BB  26070.40831019  .00000000  00000+0  00000-0 0  9997
2 35350  80.0000 192.0000 0000000   0.0000 102.0000 15.08756051    10
CTC1_L_00052018-01
1 35351U 26045OE  26070.40831019  .00000000  00000+0  00000-0 0  9994
2 35351  80.0000 204.0000 0000000   0.0000 204.0000 15.08756051    18
CTC1_L_00052018-02
1 35352U 23439OF  26070.40831019  .00000000  00000+0  00000-0 0  9999
2 35352  80.0000 204.0000 0000000   0.0000 294.0000 15.08756051    18
CTC1_L_00052018-03
1 35353U 25576ZK  26070.40831019  .00000000  00000+0  00000-0 0  9994
2 35353  80.0000 204.0000 0000000   0.0000  24.0000 15.08756051    10
CTC1_L_00052018-04
1 35354U 22146CT  26070.40831019  .00000000  00000+0  00000-0 0  9995
2 35354  80.0000 204.0000 0000000   0.0000 114.0000 15.08756051    11
CTC1_L_00052019-01
1 35355U 22319JN  26070.40831019  .00000000  00000+0  00000-0 0  9998
2 35355  80.0000 216.0000 0000000   0.0000 216.0000 15.08756051    18
CTC1_L_00052019-02
1 35356U 26570OA  26070.40831019  .00000000  00000+0  00000-0 0  9992
2 35356  80.0000 216.0000 0000000   0.0000 306.0000 15.08756051    19
CTC1_L_00052019-03
1 35357U 22287MD  26070.40831019  .00000000  00000+0  00000-0 0  9994
2 35357  80.0000 216.0000 0000000   0.0000  36.0000 15.08756051    10
CTC1_L_00052019-04
1 35358U 22947A   26070.40831019  .00000000  00000+0  00000-0 0  9998
2 35358  80.0000 216.0000 0000000   0.0000 126.0000 15.08756051    11
CTC1_L_00052020-01
1 35359U 26816OR  26070.40831019  .00000000  00000+0  00000-0 0  9998
2 35359  80.0000 228.0000 0000000   0.0000 228.0000 15.08756051    18
CTC1_L_00052020-02
1 35360U 25563KU  26070.40831019  .00000000  00000+0  00000-0 0  9998
2 35360  80.0000 228.0000 0000000   0.0000 318.0000 15.08756051    10
CTC1_L_00052020-03
1 35361U 26925XB  26070.40831019  .00000000  00000+0  00000-0 0  9992
2 35361  80.0000 228.0000 0000000   0.0000  48.0000 15.08756051    11
CTC1_L_00052020-04
1 35362U 23937MD  26070.40831019  .00000000  00000+0  00000-0 0  9993
2 35362  80.0000 228.0000 0000000   0.0000 138.0000 15.08756051    12
CTC1_L_00052021-01
1 35363U 24999ZJ  26070.40831019  .00000000  00000+0  00000-0 0  9993
2 35363  80.0000 240.0000 0000000   0.0000 240.0000 15.08756051    11
CTC1_L_00052021-02
1 35364U 24389YD  26070.40831019  .00000000  00000+0  00000-0 0  9997
2 35364  80.0000 240.0000 0000000   0.0000 330.0000 15.08756051    12
CTC1_L_00052021-03
1 35365U 23981FV  26070.40831019  .00000000  00000+0  00000-0 0  9995
2 35365  80.0000 240.0000 0000000   0.0000  60.0000 15.08756051    13
CTC1_L_00052021-04
1 35366U 24133MI  26070.40831019  .00000000  00000+0  00000-0 0  9996
2 35366  80.0000 240.0000 0000000   0.0000 150.0000 15.08756051    14
CTC1_L_00052022-01
1 35367U 25714YM  26070.40831019  .00000000  00000+0  00000-0 0  9993
2 35367  80.0000 252.0000 0000000   0.0000 252.0000 15.08756051    11
CTC1_L_00052022-02
1 35368U 23644PC  26070.40831019  .00000000  00000+0  00000-0 0  9994
2 35368  80.0000 252.0000 0000000   0.0000 342.0000 15.08756051    12
CTC1_L_00052022-03
1 35369U 24790UO  26070.40831019  .00000000  00000+0  00000-0 0  9998
2 35369  80.0000 252.0000 0000000   0.0000  72.0000 15.08756051    13
CTC1_L_00052022-04
1 35370U 22431SF  26070.40831019  .00000000  00000+0  00000-0 0  9990
2 35370  80.0000 252.0000 0000000   0.0000 162.0000 15.08756051    15
CTC1_L_00052023-01
1 35371U 24913ZJ  26070.40831019  .00000000  00000+0  00000-0 0  9998
2 35371  80.0000 264.0000 0000000   0.0000 264.0000 15.08756051    12
CTC1_L_00052023-02
1 35372U 23643SY  26070.40831019  .00000000  00000+0  00000-0 0  9998
2 35372  80.0000 264.0000 0000000   0.0000 354.0000 15.08756051    13
CTC1_L_00052023-03
1 35373U 26827RO  26070.40831019  .00000000  00000+0  00000-0 0  9996
2 35373  80.0000 264.0000 0000000   0.0000  84.0000 15.08756051    14
CTC1_L_00052023-04
1 35374U 24101NK  26070.40831019  .00000000  00000+0  00000-0 0  9990
2 35374  80.0000 264.0000 0000000   0.0000 174.0000 15.08756051    15
CTC1_L_00052024-01
1 35375U 23543SQ  26070.40831019  .00000000  00000+0  00000-0 0  9990
2 35375  80.0000 276.0000 0000000   0.0000 276.0000 15.08756051    12
CTC1_L_00052024-02
1 35376U 22153MQ  26070.40831019  .00000000  00000+0  00000-0 0  9997
2 35376  80.0000 276.0000 0000000   0.0000   6.0000 15.08756051    14
CTC1_L_00052024-03
1 35377U 23139SF  26070.40831019  .00000000  00000+0  00000-0 0  9993
2 35377  80.0000 276.0000 0000000   0.0000  96.0000 15.08756051    14
CTC1_L_00052024-04
1 35378U 25885WS  26070.40831019  .00000000  00000+0  00000-0 0  9994
2 35378  80.0000 276.0000 0000000   0.0000 186.0000 15.08756051    15
CTC1_L_00052025-01
1 35379U 25453PA  26070.40831019  .00000000  00000+0  00000-0 0  9996
2 35379  80.0000 288.0000 0000000   0.0000 288.0000 15.08756051    12
CTC1_L_00052025-02
1 35380U 26941RN  26070.40831019  .00000000  00000+0  00000-0 0  9991
2 35380  80.0000 288.0000 0000000   0.0000  18.0000 15.08756051    15
CTC1_L_00052025-03
1 35381U 22336XR  26070.40831019  .00000000  00000+0  00000-0 0  9996
2 35381  80.0000 288.0000 0000000   0.0000 108.0000 15.08756051    16
CTC1_L_00052025-04
1 35382U 22233TD  26070.40831019  .00000000  00000+0  00000-0 0  9993
2 35382  80.0000 288.0000 0000000   0.0000 198.0000 15.08756051    16
CTC1_L_00052026-01
1 35383U 26267MP  26070.40831019  .00000000  00000+0  00000-0 0  9995
2 35383  80.0000 300.0000 0000000   0.0000 300.0000 15.08756051    17
CTC1_L_00052026-02
1 35384U 24843DT  26070.40831019  .00000000  00000+0  00000-0 0  9994
2 35384  80.0000 300.0000 0000000   0.0000  30.0000 15.08756051    18
CTC1_L_00052026-03
1 35385U 24236U   26070.40831019  .00000000  00000+0  00000-0 0  9991
2 35385  80.0000 300.0000 0000000   0.0000 120.0000 15.08756051    19
CTC1_L_00052026-04
1 35386U 25071UN  26070.40831019  .00000000  00000+0  00000-0 0  9990
2 35386  80.0000 300.0000 0000000   0.0000 210.0000 15.08756051    10
CTC1_L_00052027-01
1 35387U 26822CJ  26070.40831019  .00000000  00000+0  00000-0 0  9996
2 35387  80.0000 312.0000 0000000   0.0000 312.0000 15.08756051    17
CTC1_L_00052027-02
1 35388U 25243EY  26070.40831019  .00000000  00000+0  00000-0 0  9993
2 35388  80.0000 312.0000 0000000   0.0000  42.0000 15.08756051    18
CTC1_L_00052027-03
1 35389U 26936SO  26070.40831019  .00000000  00000+0  00000-0 0  9994
2 35389  80.0000 312.0000 0000000   0.0000 132.0000 15.08756051    19
CTC1_L_00052027-04
1 35390U 23632TE  26070.40831019  .00000000  00000+0  00000-0 0  9996
2 35390  80.0000 312.0000 0000000   0.0000 222.0000 15.08756051    11
CTC1_L_00052028-01
1 35391U 23253WH  26070.40831019  .00000000  00000+0  00000-0 0  9996
2 35391  80.0000 324.0000 0000000   0.0000 324.0000 15.08756051    18
CTC1_L_00052028-02
1 35392U 26833QB  26070.40831019  .00000000  00000+0  00000-0 0  9994
2 35392  80.0000 324.0000 0000000   0.0000  54.0000 15.08756051    19
CTC1_L_00052028-03
1 35393U 26145RS  26070.40831019  .00000000  00000+0  00000-0 0  9991
2 35393  80.0000 324.0000 0000000   0.0000 144.0000 15.08756051    10
CTC1_L_00052028-04
1 35394U 24326KG  26070.40831019  .00000000  00000+0  00000-0 0  9991
2 35394  80.0000 324.0000 0000000   0.0000 234.0000 15.08756051    11
CTC1_L_00052029-01
1 35395U 23958SM  26070.40831019  .00000000  00000+0  00000-0 0  9992
2 35395  80.0000 336.0000 0000000   0.0000 336.0000 15.08756051    18
CTC1_L_00052029-02
1 35396U 24500DV  26070.40831019  .00000000  00000+0  00000-0 0  9997
2 35396  80.0000 336.0000 0000000   0.0000  66.0000 15.08756051    19
CTC1_L_00052029-03
1 35397U 26878VX  26070.40831019  .00000000  00000+0  00000-0 0  9998
2 35397  80.0000 336.0000 0000000   0.0000 156.0000 15.08756051    10
CTC1_L_00052029-04
1 35398U 24408GH  26070.40831019  .00000000  00000+0  00000-0 0  9996
2 35398  80.0000 336.0000 0000000   0.0000 246.0000 15.08756051    11
CTC1_L_00052030-01
1 35399U 23400MP  26070.40831019  .00000000  00000+0  00000-0 0  9998
2 35399  80.0000 348.0000 0000000   0.0000 348.0000 15.08756051    18
CTC1_L_00052030-02
1 35400U 26610CQ  26070.40831019  .00000000  00000+0  00000-0 0  9997
2 35400  80.0000 348.0000 0000000   0.0000  78.0000 15.08756051    11
CTC1_L_00052030-03
1 35401U 22092SH  26070.40831019  .00000000  00000+0  00000-0 0  9998
2 35401  80.0000 348.0000 0000000   0.0000 168.0000 15.08756051    12
CTC1_L_00052030-04
1 35402U 26551IA  26070.40831019  .00000000  00000+0  00000-0 0  9993
2 35402  80.0000 348.0000 0000000   0.0000 258.0000 15.08756051    13
